BEESAT-4                
1 41619U 16040W   22094.86649280  .00018433  00000+0  65826-3 0  9990
2 41619  97.2262 147.5414 0010107  28.9473 331.2326 15.28850227309472
CAS-2T & KS-1Q          
1 41847U 16066G   22094.89333541  .00001460  00000+0  22692-3 0  9990
2 41847  98.5582 159.6207 0365330  69.9553 294.0568 14.38462033283775
NAYIF-1 (EO-88)         
1 42017U 17008BX  22094.75761767  .00021880  00000+0  70928-3 0  9990
2 42017  97.2758 162.0516 0006569 143.4312 216.7379 15.31986418285780
ZHUHAI-1 02 (CAS-4B)    
1 42759U 17034B   22094.83586881  .00006606  00000+0  39848-3 0  9998
2 42759  43.0190  18.2899 0008299 195.3754 266.0888 15.11246870265214
ZHUHAI-1 01 (CAS-4A)    
1 42761U 17034D   22094.86652912  .00006404  00000+0  38577-3 0  9997
2 42761  43.0191  16.9609 0008272 197.2624 212.1733 15.11335964265225
MAX VALIER SAT          
1 42778U 17036P   22094.83145166  .00009727  00000+0  38496-3 0  9993
2 42778  97.2151 138.4935 0010340 218.4005 141.6499 15.25594256265670
RADFXSAT (FOX-1B)       
1 43017U 17073E   22094.66627990  .00006797  00000+0  51279-3 0  9990
2 43017  97.6833 351.8708 0252536  69.4964 293.3158 14.80696656236199
FOX-1D (AO-92)          
1 43137U 18004AC  22094.71339554  .00014054  00000+0  52053-3 0  9996
2 43137  97.3725 170.6052 0006744 259.1022 100.9459 15.27739987235080
DIWATA-2B               
1 43678U 18084H   22094.95069240  .00001727  00000+0  17602-3 0  9996
2 43678  97.9567 227.4167 0010261 160.9217 199.2361 14.92010198186896
ES'HAIL 2               
1 43700U 18090A   22094.24181576  .00000139  00000+0  00000+0 0  9994
2 43700   0.0185 126.3578 0002333 275.2773 263.7469  1.00274854 12287
FOX-1CLIFF (AO-95)      
1 43770U 18099N   22094.82587087  .00002994  00000+0  27148-3 0  9998
2 43770  97.6271 163.0872 0014869 157.4741 202.7136 14.95994449182009
ITASAT 1                
1 43786U 18099AE  22094.82776368  .00002463  00000+0  22304-3 0  9997
2 43786  97.6296 163.9648 0015657 150.6313 209.5792 14.96201894182042
JY1SAT (JO-97)          
1 43803U 18099AX  22094.73381402  .00004977  00000+0  44088-3 0  9993
2 43803  97.6252 163.6130 0015992 150.2360 209.9775 14.96590499182044
UWE-4                   
1 43880U 18111E   22094.71915923  .00003789  00000+0  32834-3 0  9998
2 43880  97.6728   2.3266 0011172 202.8035 157.2692 14.97650961178663
NEXUS (FO-99)           
1 43937U 19003F   22094.90682907  .00016930  00000+0  60365-3 0  9998
2 43937  97.1395 131.1831 0022896  60.4697 299.8823 15.28711155178732
PSAT2 (NO-104)          
1 44354U 19036R   22094.86569824  .00053746 -57255-5  55364-3 0  9995
2 44354  28.5289 324.8846 0261640 227.1978 130.6344 15.30745623153361
BRICSAT2 (NO-103)       
1 44355U 19036S   22094.60733497  .00643369  14328-3  16710-2 0  9995
2 44355  28.5166 201.4774 0090563  68.4952 292.5287 15.86919045154567
JAISAT-1                
1 44419U 19038F   22094.87482455  .00013153  00000+0  68544-3 0  9995
2 44419  97.6299  64.5099 0020874  32.0996 328.1503 15.15925550151905
DUCHIFAT-3              
1 44854U 19089C   22094.92292613  .00005858  00000+0  46216-3 0  9990
2 44854  36.9633 176.0669 0008579 340.1606  19.8816 15.00467443126883
CAS-6 (TO-108)          
1 44881U 19093C   22094.83342819  .00000913  00000+0  12259-3 0  9996
2 44881  97.8959 175.0953 0016426  67.9937 292.3015 14.81621626123874
RS-44 & BREEZE-KM R/B   
1 44909U 19096E   22094.85663223  .00000020  00000+0  28152-4 0  9996
2 44909  82.5165 279.1763 0218188 131.6555 230.3457 12.79712863106090
ORBITAL FACTORY 2 (OF-2)
1 45113U 19071C   22094.30011114  .00036972  00000+0  87416-3 0  9995
2 45113  51.6402  63.1667 0008329 266.8854  93.1178 15.41426305121929
HUSKYSAT-1 (HO-107)     
1 45119U 19071J   22094.92054057  .00028940  00000+0  69741-3 0  9999
2 45119  51.6399  59.7918 0008064 264.5332  95.4733 15.40977521122015
BY70-2                  
1 45857U 20042B   22094.83134158  .00009417  00000+0  12896-2 0  9995
2 45857  97.9582 172.4318 0009852   2.4457 357.6870 14.78663715 94572
SALSAT                  
1 46495U 20068K   22094.79511359  .00003571  00000+0  26156-3 0  9999
2 46495  97.7228  36.1238 0016993 162.6545 197.5265 15.04090528 83117
BY70-3                  
1 46839U 20079N   22094.84041587  .00029043  00000+0  76313-3 0  9992
2 46839  97.2057 168.0584 0005839 222.7914 245.6267 15.38544840 78915
RADFXSAT-2 (AO-109)     
1 47311U 21002C   22094.82171705  .00011290  00000+0  47364-3 0  9998
2 47311  60.6860 279.1463 0013356 224.6711 135.3301 15.23880301 67232
UVSQ-SAT                
1 47438U 21006AB  22094.91037332  .00009229  00000+0  50126-3 0  9998
2 47438  97.4449 155.4518 0012849 164.4344 195.7285 15.14666129 66149
DIY-1 (ARDUIQUBE)       
1 47963U 21022AH  22094.70093547  .00023468  00000+0  14044-2 0  9995
2 47963  97.5380 357.0307 0019140  33.3673 326.8759 15.10874607 55805
XW-3 (CAS-9)            
1 50466U 21131B   22094.64954545  .00000378  00000+0  13854-3 0  9999
2 50466  98.5836 171.9314 0004580  25.8889 334.2527 14.38459312 14309
